{
  "norad_id": 68844,
  "name": "STARLINK-37538",
  "history": [
    {
      "epoch": "2026-05-02T10:00:03.000096Z",
      "apogee_km": 276.74164619454496,
      "perigee_km": 275.018255804237,
      "latitude_deg": -38.33311320231568,
      "longitude_deg": -60.04420521252268,
      "height_km": 291.18374683338106,
      "semi_major_axis_km": 6654.016950999391,
      "eccentricity": 0.0001295,
      "inclination_deg": 97.2826,
      "raan_deg": 136.0698,
      "arg_perigee_deg": 88.3448,
      "mean_anomaly_deg": 130.0587,
      "mean_motion_rev_day": 15.99472979
    }
  ]
}