{"fetched_at":"2026-05-03T06:27:58Z","count":17151,"tles":[{"name":"STARLINK-37538","line1":"1 68844U 26094F   26122.41670139 -.01739348  90954-3 -35677-2 0  9992","line2":"2 68844  97.2826 136.0698 0001295  88.3448 130.0587 15.99472979  2009","category":"Starlink"}]}